[{"OBJECT_NAME":"BEIJING 1","OBJECT_ID":"2005-043A","EPOCH":"2026-03-03T20:39:30.526272","MEAN_MOTION":14.63453426,"ECCENTRICITY":0.0013395,"INCLINATION":98.2716,"RA_OF_ASC_NODE":195.5946,"ARG_OF_PERICENTER":250.1244,"MEAN_ANOMALY":109.8514,"EPHEMERIS_TYPE":0,"CLASSIFICATION_TYPE":"U","NORAD_CAT_ID":28890,"ELEMENT_SET_NO":999,"REV_AT_EPOCH":8524,"BSTAR":0.00010443,"MEAN_MOTION_DOT":4.92e-6,"MEAN_MOTION_DDOT":0},{"OBJECT_NAME":"HUANJING 1A (HJ-1A)","OBJECT_ID":"2008-041A","EPOCH":"2026-03-03T21:40:04.278720","MEAN_MOTION":14.83693173,"ECCENTRICITY":0.0020318,"INCLINATION":97.6619,"RA_OF_ASC_NODE":52.8697,"ARG_OF_PERICENTER":121.2942,"MEAN_ANOMALY":239.0265,"EPHEMERIS_TYPE":0,"CLASSIFICATION_TYPE":"U","NORAD_CAT_ID":33320,"ELEMENT_SET_NO":999,"REV_AT_EPOCH":94279,"BSTAR":0.00015225,"MEAN_MOTION_DOT":1.211e-5,"MEAN_MOTION_DDOT":0},{"OBJECT_NAME":"HUANJING 1B (HJ-1B)","OBJECT_ID":"2008-041B","EPOCH":"2026-03-03T21:26:56.402304","MEAN_MOTION":14.83084961,"ECCENTRICITY":0.0036601,"INCLINATION":97.6469,"RA_OF_ASC_NODE":56.3402,"ARG_OF_PERICENTER":166.5355,"MEAN_ANOMALY":193.6845,"EPHEMERIS_TYPE":0,"CLASSIFICATION_TYPE":"U","NORAD_CAT_ID":33321,"ELEMENT_SET_NO":999,"REV_AT_EPOCH":94280,"BSTAR":0.0001666,"MEAN_MOTION_DOT":1.32e-5,"MEAN_MOTION_DDOT":0},{"OBJECT_NAME":"YAOGAN-4","OBJECT_ID":"2008-061A","EPOCH":"2026-03-03T17:09:22.716864","MEAN_MOTION":14.82955886,"ECCENTRICITY":0.0015647,"INCLINATION":97.9244,"RA_OF_ASC_NODE":357.0636,"ARG_OF_PERICENTER":57.241,"MEAN_ANOMALY":303.0309,"EPHEMERIS_TYPE":0,"CLASSIFICATION_TYPE":"U","NORAD_CAT_ID":33446,"ELEMENT_SET_NO":999,"REV_AT_EPOCH":93003,"BSTAR":0.00022976,"MEAN_MOTION_DOT":1.815e-5,"MEAN_MOTION_DDOT":0},{"OBJECT_NAME":"DEIMOS-1","OBJECT_ID":"2009-041A","EPOCH":"2026-03-03T20:19:22.568736","MEAN_MOTION":14.75103869,"ECCENTRICITY":0.0001954,"INCLINATION":97.7238,"RA_OF_ASC_NODE":224.723,"ARG_OF_PERICENTER":126.146,"MEAN_ANOMALY":233.9931,"EPHEMERIS_TYPE":0,"CLASSIFICATION_TYPE":"U","NORAD_CAT_ID":35681,"ELEMENT_SET_NO":999,"REV_AT_EPOCH":89135,"BSTAR":0.0001339,"MEAN_MOTION_DOT":8.55e-6,"MEAN_MOTION_DDOT":0},{"OBJECT_NAME":"UK-DMC 2","OBJECT_ID":"2009-041C","EPOCH":"2026-03-03T19:19:37.085376","MEAN_MOTION":14.75835778,"ECCENTRICITY":0.0001077,"INCLINATION":97.8636,"RA_OF_ASC_NODE":200.4668,"ARG_OF_PERICENTER":88.5305,"MEAN_ANOMALY":271.6028,"EPHEMERIS_TYPE":0,"CLASSIFICATION_TYPE":"U","NORAD_CAT_ID":35683,"ELEMENT_SET_NO":999,"REV_AT_EPOCH":89102,"BSTAR":0.00023926,"MEAN_MOTION_DOT":1.592e-5,"MEAN_MOTION_DDOT":0},{"OBJECT_NAME":"DMC3-FM1","OBJECT_ID":"2015-032A","EPOCH":"2026-03-03T20:50:43.575360","MEAN_MOTION":14.85604435,"ECCENTRICITY":0.0006821,"INCLINATION":97.6627,"RA_OF_ASC_NODE":292.0825,"ARG_OF_PERICENTER":49.5828,"MEAN_ANOMALY":310.5981,"EPHEMERIS_TYPE":0,"CLASSIFICATION_TYPE":"U","NORAD_CAT_ID":40715,"ELEMENT_SET_NO":999,"REV_AT_EPOCH":57427,"BSTAR":0.00018243,"MEAN_MOTION_DOT":1.528e-5,"MEAN_MOTION_DDOT":0},{"OBJECT_NAME":"DMC3-FM2","OBJECT_ID":"2015-032B","EPOCH":"2026-03-03T21:22:54.528096","MEAN_MOTION":14.85605194,"ECCENTRICITY":0.0007409,"INCLINATION":97.6684,"RA_OF_ASC_NODE":293.6052,"ARG_OF_PERICENTER":52.9043,"MEAN_ANOMALY":307.2848,"EPHEMERIS_TYPE":0,"CLASSIFICATION_TYPE":"U","NORAD_CAT_ID":40716,"ELEMENT_SET_NO":999,"REV_AT_EPOCH":57427,"BSTAR":7.3757e-5,"MEAN_MOTION_DOT":5.87e-6,"MEAN_MOTION_DDOT":0},{"OBJECT_NAME":"DMC3-FM3","OBJECT_ID":"2015-032C","EPOCH":"2026-03-03T20:19:07.104000","MEAN_MOTION":14.85567604,"ECCENTRICITY":0.0006714,"INCLINATION":97.6737,"RA_OF_ASC_NODE":295.2469,"ARG_OF_PERICENTER":54.1996,"MEAN_ANOMALY":305.9843,"EPHEMERIS_TYPE":0,"CLASSIFICATION_TYPE":"U","NORAD_CAT_ID":40717,"ELEMENT_SET_NO":999,"REV_AT_EPOCH":57427,"BSTAR":7.9899e-5,"MEAN_MOTION_DOT":6.39e-6,"MEAN_MOTION_DDOT":0}]
