BEIJING 1               
1 28890U 05043A   26062.86076998  .00000492  00000+0  10443-3 0  9997
2 28890  98.2716 195.5946 0013395 250.1244 109.8514 14.63453426 85245
HUANJING 1A (HJ-1A)     
1 33320U 08041A   26062.90282730  .00001211  00000+0  15225-3 0  9993
2 33320  97.6619  52.8697 0020318 121.2942 239.0265 14.83693173942796
HUANJING 1B (HJ-1B)     
1 33321U 08041B   26062.89370836  .00001320  00000+0  16660-3 0  9992
2 33321  97.6469  56.3402 0036601 166.5355 193.6845 14.83084961942805
YAOGAN-4                
1 33446U 08061A   26062.71484626  .00001815  00000+0  22976-3 0  9992
2 33446  97.9244 357.0636 0015647  57.2410 303.0309 14.82955886930038
DEIMOS-1                
1 35681U 09041A   26062.84678899  .00000855  00000+0  13390-3 0  9998
2 35681  97.7238 224.7230 0001954 126.1460 233.9931 14.75103869891350
UK-DMC 2                
1 35683U 09041C   26062.80529034  .00001592  00000+0  23926-3 0  9997
2 35683  97.8636 200.4668 0001077  88.5305 271.6028 14.75835778891027
DMC3-FM1                
1 40715U 15032A   26062.86855990  .00001528  00000+0  18243-3 0  9990
2 40715  97.6627 292.0825 0006821  49.5828 310.5981 14.85604435574279
DMC3-FM2                
1 40716U 15032B   26062.89090889  .00000587  00000+0  73757-4 0  9998
2 40716  97.6684 293.6052 0007409  52.9043 307.2848 14.85605194574270
DMC3-FM3                
1 40717U 15032C   26062.84661000  .00000639  00000+0  79899-4 0  9994
2 40717  97.6737 295.2469 0006714  54.1996 305.9843 14.85567604574272
